STARLINK-6106           
1 57154U 23090BF  24145.27436984  .00003038  00000+0  23981-3 0  9994
2 57154  43.0009 217.4217 0001265 281.8324  78.2376 15.02543036 50980
STARLINK-6108           
1 57155U 23090BG  24145.52586293 -.00007303  00000+0 -52644-3 0  9991
2 57155  43.0038 215.8722 0001303 269.1968  90.8725 15.02511775 51021
STARLINK-6137           
1 57156U 23090BH  24145.52918481  .00001100  00000+0  96492-4 0  9997
2 57156  43.0017 215.8918 0001171 277.0053  83.0656 15.02538600 51025
STARLINK-5525           
1 57218U 23094A   24144.87171484 -.00000829  00000+0 -46275-4 0  9994
2 57218  43.0020 348.8360 0001088 267.3213  92.7505 15.02541909 48799
STARLINK-5520           
1 57219U 23094B   24144.86838532  .00004431  00000+0  34278-3 0  9998
2 57219  43.0036 348.8133 0001645 274.0350  86.0304 15.02543574 48794
STARLINK-5880           
1 57220U 23094C   24145.05227776  .00004440  00000+0  34348-3 0  9992
2 57220  43.0026 347.6093 0001858 259.9112 100.1520 15.02544764 48825
STARLINK-5875           
1 57221U 23094D   24145.06560393  .00008485  00000+0  64223-3 0  9997
2 57221  42.9969 347.7171 0000642 322.7404  37.3394 15.02545961 48821
STARLINK-5870           
1 57222U 23094E   24144.92598647  .00017296  00000+0  12917-2 0  9997
2 57222  43.0024 348.3841 0001379 253.9071 106.1620 15.02552609 48868
STARLINK-5519           
1 57223U 23094F   24143.99862344  .00011908  00000+0  89449-3 0  9991
2 57223  42.9979 353.4675 0000871 228.3582 131.7185 15.02561231 48486
STARLINK-5983           
1 57224U 23094G   24143.99197171  .00009857  00000+0  74356-3 0  9992
2 57224  43.0036 353.4167 0001788 251.4051 108.6597 15.02545966 48482
STARLINK-6294           
1 57225U 23094H   24143.80141396  .00002691  00000+0  21421-3 0  9995
2 57225  43.0015 354.5615 0001204 286.8786  73.1925 15.02537904 48697
STARLINK-6350           
1 57226U 23094J   24144.97803178  .00002029  00000+0  16520-3 0  9997
2 57226  43.0048 347.9111 0001882 272.8790  87.1837 15.02538321 48818
STARLINK-5996           
1 57227U 23094K   24144.84951462  .00001054  00000+0  93115-4 0  9997
2 57227  43.0031 348.6673 0001858 255.0031 105.0606 15.02539664 48619
STARLINK-6230           
1 57228U 23094L   24144.97470521  .00000576  00000+0  57692-4 0  9992
2 57228  43.0064 347.8848 0001839 267.6939  92.3693 15.02539409 48819
STARLINK-6233           
1 57229U 23094M   24144.84840668  .00001464  00000+0  12341-3 0  9990
2 57229  43.0035 348.6588 0001585 261.1563  98.9100 15.02539245 48619
STARLINK-6250           
1 57230U 23094N   24145.03562982  .00011982  00000+0  90002-3 0  9990
2 57230  42.9997 347.4853 0001082 279.8277  80.2443 15.02557680 48828
STARLINK-5840           
1 57231U 23094P   24145.54414078  .00001140  00000+0  99431-4 0  9990
2 57231  43.0041 344.4139 0001682 253.6368 106.4290 15.02535790 48900
STARLINK-5872           
1 57232U 23094Q   24145.54303312  .00000705  00000+0  67227-4 0  9993
2 57232  43.0033 344.4064 0001338 280.5769  79.4923 15.02540713 48960
STARLINK-5866           
1 57233U 23094R   24144.88602643  .00018586  00000+0  13867-2 0  9994
2 57233  43.0029 348.0813 0001790 261.7018  98.3621 15.02552372 48800
STARLINK-6368           
1 57234U 23094S   24144.87603923  .00002572  00000+0  20535-3 0  9995
2 57234  43.0026 348.0039 0001280 293.0358  67.0349 15.02540993 48803
STARLINK-6360           
1 57235U 23094T   24144.95472319  .00013534  00000+0  10146-2 0  9994
2 57235  43.0032 347.7357 0001709 250.1304 109.9354 15.02550110 48816
STARLINK-6315           
1 57236U 23094U   24144.88307181  .00008906  00000+0  67335-3 0  9991
2 57236  43.0032 335.9170 0001532 259.0918 100.9752 15.02545906 48946
STARLINK-6365           
1 57237U 23094V   24144.81621726 -.00001188  00000+0 -72839-4 0  9992
2 57237  43.0035 348.4184 0001650 265.6335  94.4319 15.02541669 48613
STARLINK-6334           
1 57238U 23094W   24145.00825414  .00004901  00000+0  37755-3 0  9996
2 57238  43.0039 335.1296 0001826 255.2610 104.8031 15.02545585 48967
STARLINK-6330           
1 57239U 23094X   24144.94140582  .00007553  00000+0  57349-3 0  9992
2 57239  43.0026 347.6320 0001823 283.1022  76.9617 15.02540548 48811
STARLINK-6351           
1 57240U 23094Y   24143.93572344  .00002439  00000+0  19555-3 0  9992
2 57240  43.0058 340.8464 0003786 254.8856 105.1568 15.02543845 48624
STARLINK-6349           
1 57241U 23094Z   24145.01268982  .00006863  00000+0  52225-3 0  9990
2 57241  43.0014 335.1678 0001425 252.0637 108.0050 15.02560817 48969
STARLINK-6306           
1 57242U 23094AA  24145.00935367  .00037267  00000+0  27556-2 0  9998
2 57242  43.0029 335.1418 0001533 262.8947  97.1721 15.02584744 48969
STARLINK-6346           
1 57243U 23094AB  24145.01158466  .00027087  00000+0  20110-2 0  9995
2 57243  43.0026 335.1613 0001584 267.3085  92.7576 15.02563966 48965
STARLINK-5610           
1 57244U 23094AC  24145.00159872  .00020747  00000+0  15460-2 0  9995
2 57244  43.0022 335.0842 0001715 262.4739  97.5908 15.02543974 48995
STARLINK-5587           
1 57245U 23094AD  24145.53675091  .00009418  00000+0  71116-3 0  9993
2 57245  42.9995 332.2173 0000983 265.6695  94.4035 15.02543836 49042
STARLINK-5049           
1 57246U 23094AE  24143.97890047  .00001127  00000+0  98475-4 0  9997
2 57246  43.0034 340.3079 0001418 263.9905  96.0775 15.02542861 48633
STARLINK-5039           
1 57247U 23094AF  24145.53009055  .00001665  00000+0  13831-3 0  9992
2 57247  43.0027 332.1650 0001459 258.2621 101.8058 15.02536697 49042
STARLINK-5514           
1 57248U 23094AG  24145.52675283  .00021726  00000+0  16169-2 0  9990
2 57248  43.0026 332.1439 0002743 271.7973  88.2555 15.02569502 49045
STARLINK-5517           
1 57249U 23094AH  24144.92625178  .00027240  00000+0  20228-2 0  9990
2 57249  43.0026 335.3315 0001621 280.5461  79.5199 15.02553421 48957
STARLINK-5488           
1 57250U 23094AJ  24145.44806801  .00001481  00000+0  12465-3 0  9998
2 57250  43.0012 332.4095 0000767 244.8766 115.1996 15.02545526 49037
STARLINK-5513           
1 57251U 23094AK  24144.85643543  .00001526  00000+0  12805-3 0  9993
2 57251  43.0033 335.7150 0001582 274.5343  85.5319 15.02537600 48768
STARLINK-5511           
1 57252U 23094AL  24145.50677502  .00001574  00000+0  13155-3 0  9991
2 57252  43.0041 331.9919 0001817 260.6322  99.4315 15.02543763 49042
STARLINK-5516           
1 57253U 23094AM  24144.85532117  .00022732  00000+0  16918-2 0  9999
2 57253  43.0032 335.7066 0001699 262.3754  97.6896 15.02549642 48768
STARLINK-5490           
1 57254U 23094AN  24144.96940881  .00001493  00000+0  12560-3 0  9994
2 57254  43.0035 334.8399 0001890 256.8193 103.2438 15.02541387 48965
STARLINK-5481           
1 57255U 23094AP  24144.97162667  .00032170  00000+0  23838-2 0  9999
2 57255  43.0021 334.8583 0001724 274.1552  85.9094 15.02564297 48963
STARLINK-5512           
1 57256U 23094AQ  24144.88517545  .00001932  00000+0  15803-3 0  9995
2 57256  43.0034 335.0855 0001584 267.7862  92.2799 15.02539091 48775
STARLINK-5503           
1 57257U 23094AR  24144.91181288  .00008380  00000+0  63458-3 0  9994
2 57257  43.0025 335.2689 0001842 259.8588 100.2046 15.02541301 48959
STARLINK-5476           
1 57258U 23094AS  24145.49790553  .00021650  00000+0  16129-2 0  9997
2 57258  43.0016 331.9258 0001243 258.2240 101.8463 15.02533920 49047
STARLINK-5026           
1 57260U 23094AU  24145.02589622  .00001946  00000+0  15910-3 0  9996
2 57260  43.0033 334.4028 0001989 261.6465  98.4152 15.02542079 48978
STARLINK-5485           
1 57261U 23094AV  24144.95916524  .00007854  00000+0  59578-3 0  9995
2 57261  43.0035 347.7688 0001695 265.2487  94.8161 15.02540498 48870
STARLINK-5504           
1 57262U 23094AW  24144.83534270 -.00000178  00000+0  18926-5 0  9994
2 57262  43.0031 335.5536 0001675 257.6312 102.4342 15.02537358 48760
STARLINK-5509           
1 57263U 23094AX  24145.02452723  .00001742  00000+0  14395-3 0  9990
2 57263  43.0037 347.3969 0001623 254.3076 105.7587 15.02546026 48828
STARLINK-5858           
1 57264U 23094AY  24145.55327801  .00004319  00000+0  33452-3 0  9995
2 57264  43.0026 331.4794 0001653 258.2433 101.8224 15.02545436 49055
STARLINK-5890           
1 57265U 23094AZ  24145.55105978  .00011267  00000+0  84747-3 0  9998
2 57265  43.0032 331.4627 0001133 254.6895 105.3822 15.02551810 49059
STARLINK-30198          
1 57290U 23096A   24144.55510556  .00000904  00000+0  81998-4 0  9991
2 57290  43.0003 183.3696 0000803 286.8209  73.2545 15.02539012 49060
STARLINK-30239          
1 57291U 23096B   24144.48530017 -.00001297  00000+0 -80943-4 0  9995
2 57291  43.0009 183.7075 0001698 264.6901  95.3747 15.02541047 49057
STARLINK-30210          
1 57292U 23096C   24145.14675761  .00005302  00000+0  40721-3 0  9994
2 57292  43.0006 180.0698 0001254 266.9024  93.1674 15.02539396 48075
STARLINK-30202          
1 57293U 23096D   24145.36201148  .00154478  00000+0  43632-2 0  9995
2 57293  42.9934 141.6830 0029927 105.2300 255.1866 15.34621441 48682
STARLINK-30235          
1 57294U 23096E   24144.47531670 -.00001645  00000+0 -10677-3 0  9996
2 57294  43.0006 183.6301 0001436 258.1698 101.8983 15.02528879 49052
STARLINK-30206          
1 57295U 23096F   24145.48910605  .00001434  00000+0  12113-3 0  9999
2 57295  43.0021 178.3042 0001309 276.2309  83.8385 15.02555834 48114
STARLINK-30238          
1 57296U 23096G   24145.46917147 -.00004176  00000+0 -29436-3 0  9990
2 57296  42.9998 178.1791 0001534 186.1318 173.9505 15.02518065 48103
STARLINK-30234          
1 57297U 23096H   24144.46865013 -.00001838  00000+0 -12100-3 0  9996
2 57297  42.9995 183.5804 0001239 275.2978  84.7723 15.02547090 49056
STARLINK-30241          
1 57298U 23096J   24145.43917857  .00001234  00000+0  10645-3 0  9999
2 57298  43.0017 177.9416 0001470 268.9207  91.1467 15.02533425 48111
STARLINK-30199          
1 57299U 23096K   24144.59828222  .00001703  00000+0  14110-3 0  9995
2 57299  43.0008 182.8332 0001977 277.3377  82.7240 15.02537810 49071
